{"type": "FeatureCollection", "features": [ {"type": "Feature", "properties": {"norad_id": 66468, "name": "STARLINK-35331", "group": "last-30-days", "lat": 20.663718128494047, "lon": -80.55246650615912, "alt_km": 390.1306231272338, "timestamp": "2025-12-03T19:33:05.756131+00:00", "meta": {"OBJECT_NAME": "STARLINK-35331", "OBJECT_ID": "2025-262N", "EPOCH": "2025-12-03T12:00:02.998944", "MEAN_MOTION": 15.59722142, "ECCENTRICITY": 0.0001079, "INCLINATION": 42.9994, "RA_OF_ASC_NODE": 125.1863, "ARG_OF_PERICENTER": 273.1467, "MEAN_ANOMALY": 267.7704, "EPHEMERIS_TYPE": 0, "CLASSIFICATION_TYPE": "U", "NORAD_CAT_ID": 66468, "ELEMENT_SET_NO": 999, "REV_AT_EPOCH": 415, "BSTAR": -0.02944, "MEAN_MOTION_DOT": -0.02149353, "MEAN_MOTION_DDOT": 0}, "tle": {"line1": "1 66468U 25262N   25337.50003471 -.02149353  00000+0 -29440-1 0  9995", "line2": "2 66468  42.9994 125.1863 0001079 273.1467 267.7704 15.59722142  4153"}}, "geometry": {"type": "Point", "coordinates": [-80.55246650615912, 20.663718128494047]}}, {"type": "Feature", "properties": {"norad_id": 66469, "name": "STARLINK-35451", "group": "last-30-days", "lat": 17.014914102588975, "lon": -75.86475149008994, "alt_km": 390.538269588762, "timestamp": "2025-12-03T19:33:05.756141+00:00", "meta": {"OBJECT_NAME": "STARLINK-35451", "OBJECT_ID": "2025-262P", "EPOCH": "2025-12-03T12:00:02.998944", "MEAN_MOTION": 15.59718652, "ECCENTRICITY": 0.0001053, "INCLINATION": 42.9996, "RA_OF_ASC_NODE": 125.1711, "ARG_OF_PERICENTER": 268.0861, "MEAN_ANOMALY": 278.5842, "EPHEMERIS_TYPE": 0, "CLASSIFICATION_TYPE": "U", "NORAD_CAT_ID": 66469, "ELEMENT_SET_NO": 999, "REV_AT_EPOCH": 415, "BSTAR": -0.029365, "MEAN_MOTION_DOT": -0.02144166, "MEAN_MOTION_DDOT": 0}, "tle": {"line1": "1 66469U 25262P   25337.50003471 -.02144166  00000+0 -29365-1 0  9999", "line2": "2 66469  42.9996 125.1711 0001053 268.0861 278.5842 15.59718652  4155"}}, "geometry": {"type": "Point", "coordinates": [-75.86475149008994, 17.014914102588975]}}, {"type": "Feature", "properties": {"norad_id": 66470, "name": "STARLINK-35655", "group": "last-30-days", "lat": 19.46120507237272, "lon": -78.96715381316392, "alt_km": 390.3631937925238, "timestamp": "2025-12-03T19:33:05.756153+00:00", "meta": {"OBJECT_NAME": "STARLINK-35655", "OBJECT_ID": "2025-262Q", "EPOCH": "2025-12-03T12:00:02.998944", "MEAN_MOTION": 15.59722205, "ECCENTRICITY": 0.0001164, "INCLINATION": 42.9993, "RA_OF_ASC_NODE": 125.1817, "ARG_OF_PERICENTER": 275.2452, "MEAN_ANOMALY": 267.5884, "EPHEMERIS_TYPE": 0, "CLASSIFICATION_TYPE": "U", "NORAD_CAT_ID": 66470, "ELEMENT_SET_NO": 999, "REV_AT_EPOCH": 415, "BSTAR": -0.029442, "MEAN_MOTION_DOT": -0.02149501, "MEAN_MOTION_DDOT": 0}, "tle": {"line1": "1 66470U 25262Q   25337.50003471 -.02149501  00000+0 -29442-1 0  9995", "line2": "2 66470  42.9993 125.1817 0001164 275.2452 267.5884 15.59722205  4153"}}, "geometry": {"type": "Point", "coordinates": [-78.96715381316392, 19.46120507237272]}}, {"type": "Feature", "properties": {"norad_id": 66471, "name": "STARLINK-35569", "group": "last-30-days", "lat": 18.244215593912916, "lon": -77.40510386581396, "alt_km": 390.4485484110228, "timestamp": "2025-12-03T19:33:05.756168+00:00", "meta": {"OBJECT_NAME": "STARLINK-35569", "OBJECT_ID": "2025-262R", "EPOCH": "2025-12-03T12:00:02.998944", "MEAN_MOTION": 15.59717313, "ECCENTRICITY": 0.0001125, "INCLINATION": 42.9996, "RA_OF_ASC_NODE": 125.176, "ARG_OF_PERICENTER": 271.2014, "MEAN_ANOMALY": 273.5531, "EPHEMERIS_TYPE": 0, "CLASSIFICATION_TYPE": "U", "NORAD_CAT_ID": 66471, "ELEMENT_SET_NO": 999, "REV_AT_EPOCH": 415, "BSTAR": -0.02935, "MEAN_MOTION_DOT": -0.02143149, "MEAN_MOTION_DDOT": 0}, "tle": {"line1": "1 66471U 25262R   25337.50003471 -.02143149  00000+0 -29350-1 0  9996", "line2": "2 66471  42.9996 125.1760 0001125 271.2014 273.5531 15.59717313  4151"}}, "geometry": {"type": "Point", "coordinates": [-77.40510386581396, 18.244215593912916]}}, {"type": "Feature", "properties": {"norad_id": 66472, "name": "STARLINK-35567", "group": "last-30-days", "lat": 15.775183552232413, "lon": -74.34593300977009, "alt_km": 390.87288859968885, "timestamp": "2025-12-03T19:33:05.756178+00:00", "meta": {"OBJECT_NAME": "STARLINK-35567", "OBJECT_ID": "2025-262S", "EPOCH": "2025-12-03T12:00:02.998944", "MEAN_MOTION": 15.59720744, "ECCENTRICITY": 0.0001163, "INCLINATION": 42.9995, "RA_OF_ASC_NODE": 125.1663, "ARG_OF_PERICENTER": 276.2116, "MEAN_ANOMALY": 272.3723, "EPHEMERIS_TYPE": 0, "CLASSIFICATION_TYPE": "U", "NORAD_CAT_ID": 66472, "ELEMENT_SET_NO": 999, "REV_AT_EPOCH": 415, "BSTAR": -0.029385, "MEAN_MOTION_DOT": -0.02145702, "MEAN_MOTION_DDOT": 0}, "tle": {"line1": "1 66472U 25262S   25337.50003471 -.02145702  00000+0 -29385-1 0  9992", "line2": "2 66472  42.9995 125.1663 0001163 276.2116 272.3723 15.59720744  4155"}}, "geometry": {"type": "Point", "coordinates": [-74.34593300977009, 15.775183552232413]}}, {"type": "Feature", "properties": {"norad_id": 66473, "name": "STARLINK-35568", "group": "last-30-days", "lat": 14.523687955549898, "lon": -72.84391451858366, "alt_km": 390.86677015446, "timestamp": "2025-12-03T19:33:05.756188+00:00", "meta": {"OBJECT_NAME": "STARLINK-35568", "OBJECT_ID": "2025-262T", "EPOCH": "2025-12-03T12:00:02.998944", "MEAN_MOTION": 15.59723563, "ECCENTRICITY": 0.0001103, "INCLINATION": 42.9993, "RA_OF_ASC_NODE": 125.1618, "ARG_OF_PERICENTER": 267.435, "MEAN_ANOMALY": 283.0653, "EPHEMERIS_TYPE": 0, "CLASSIFICATION_TYPE": "U", "NORAD_CAT_ID": 66473, "ELEMENT_SET_NO": 999, "REV_AT_EPOCH": 415, "BSTAR": -0.029432, "MEAN_MOTION_DOT": -0.02148951, "MEAN_MOTION_DDOT": 0}, "tle": {"line1": "1 66473U 25262T   25337.50003471 -.02148951  00000+0 -29432-1 0  9995", "line2": "2 66473  42.9993 125.1618 0001103 267.4350 283.0653 15.59723563  4153"}}, "geometry": {"type": "Point", "coordinates": [-72.84391451858366, 14.523687955549898]}}, {"type": "Feature", "properties": {"norad_id": 66474, "name": "STARLINK-35620", "group": "last-30-days", "lat": 13.263668491476986, "lon": -71.36016012361031, "alt_km": 390.9954259233609, "timestamp": "2025-12-03T19:33:05.756199+00:00", "meta": {"OBJECT_NAME": "STARLINK-35620", "OBJECT_ID": "2025-262U", "EPOCH": "2025-12-03T12:00:02.998944", "MEAN_MOTION": 15.59723005, "ECCENTRICITY": 0.0001305, "INCLINATION": 42.9996, "RA_OF_ASC_NODE": 125.1569, "ARG_OF_PERICENTER": 263.175, "MEAN_ANOMALY": 289.2463, "EPHEMERIS_TYPE": 0, "CLASSIFICATION_TYPE": "U", "NORAD_CAT_ID": 66474, "ELEMENT_SET_NO": 999, "REV_AT_EPOCH": 415, "BSTAR": -0.029481, "MEAN_MOTION_DOT": -0.02152235, "MEAN_MOTION_DDOT": 0}, "tle": {"line1": "1 66474U 25262U   25337.50003471 -.02152235  00000+0 -29481-1 0  9990", "line2": "2 66474  42.9996 125.1569 0001305 263.1750 289.2463 15.59723005  4151"}}, "geometry": {"type": "Point", "coordinates": [-71.36016012361031, 13.263668491476986]}}, {"type": "Feature", "properties": {"norad_id": 66475, "name": "STARLINK-35538", "group": "last-30-days", "lat": 11.996550660327545, "lon": -69.89311567826356, "alt_km": 391.2650294265122, "timestamp": "2025-12-03T19:33:05.756209+00:00", "meta": {"OBJECT_NAME": "STARLINK-35538", "OBJECT_ID": "2025-262V", "EPOCH": "2025-12-03T12:00:02.998944", "MEAN_MOTION": 15.59719275, "ECCENTRICITY": 0.0001268, "INCLINATION": 42.9997, "RA_OF_ASC_NODE": 125.1525, "ARG_OF_PERICENTER": 269.4999, "MEAN_ANOMALY": 284.8346, "EPHEMERIS_TYPE": 0, "CLASSIFICATION_TYPE": "U", "NORAD_CAT_ID": 66475, "ELEMENT_SET_NO": 999, "REV_AT_EPOCH": 415, "BSTAR": -0.029344, "MEAN_MOTION_DOT": -0.02142997, "MEAN_MOTION_DDOT": 0}, "tle": {"line1": "1 66475U 25262V   25337.50003471 -.02142997  00000+0 -29344-1 0  9993", "line2": "2 66475  42.9997 125.1525 0001268 269.4999 284.8346 15.59719275  4152"}}, "geometry": {"type": "Point", "coordinates": [-69.89311567826356, 11.996550660327545]}}, {"type": "Feature", "properties": {"norad_id": 66476, "name": "STARLINK-35372", "group": "last-30-days", "lat": 10.717941368813927, "lon": -68.43622866784827, "alt_km": 391.307308510065, "timestamp": "2025-12-03T19:33:05.756219+00:00", "meta": {"OBJECT_NAME": "STARLINK-35372", "OBJECT_ID": "2025-262W", "EPOCH": "2025-12-03T12:00:02.998944", "MEAN_MOTION": 15.59721382, "ECCENTRICITY": 0.000117, "INCLINATION": 42.9997, "RA_OF_ASC_NODE": 125.1474, "ARG_OF_PERICENTER": 264.3908, "MEAN_ANOMALY": 291.8621, "EPHEMERIS_TYPE": 0, "CLASSIFICATION_TYPE": "U", "NORAD_CAT_ID": 66476, "ELEMENT_SET_NO": 999, "REV_AT_EPOCH": 404, "BSTAR": -0.029396, "MEAN_MOTION_DOT": -0.02146472, "MEAN_MOTION_DDOT": 0}, "tle": {"line1": "1 66476U 25262W   25337.50003471 -.02146472  00000+0 -29396-1 0  9993", "line2": "2 66476  42.9997 125.1474 0001170 264.3908 291.8621 15.59721382  4046"}}, "geometry": {"type": "Point", "coordinates": [-68.43622866784827, 10.717941368813927]}}, {"type": "Feature", "properties": {"norad_id": 66477, "name": "STARLINK-35354", "group": "last-30-days", "lat": 8.142991601425084, "lon": -65.55988865438732, "alt_km": 391.69127877673145, "timestamp": "2025-12-03T19:33:05.756233+00:00", "meta": {"OBJECT_NAME": "STARLINK-35354", "OBJECT_ID": "2025-262X", "EPOCH": "2025-12-03T12:00:02.998944", "MEAN_MOTION": 15.59721655, "ECCENTRICITY": 0.0001067, "INCLINATION": 42.9996, "RA_OF_ASC_NODE": 125.1371, "ARG_OF_PERICENTER": 268.3038, "MEAN_ANOMALY": 291.7864, "EPHEMERIS_TYPE": 0, "CLASSIFICATION_TYPE": "U", "NORAD_CAT_ID": 66477, "ELEMENT_SET_NO": 999, "REV_AT_EPOCH": 415, "BSTAR": -0.029454, "MEAN_MOTION_DOT": -0.02150191, "MEAN_MOTION_DDOT": 0}, "tle": {"line1": "1 66477U 25262X   25337.50003471 -.02150191  00000+0 -29454-1 0  9992", "line2": "2 66477  42.9996 125.1371 0001067 268.3038 291.7864 15.59721655  4158"}}, "geometry": {"type": "Point", "coordinates": [-65.55988865438732, 8.142991601425084]}}]}